#dV2023  2 10 22  0  0.00000000    1682       CTS   FIT  GFZ
## 2248 511200.00000000    30.00000000 59985 0.9166666666667
+    1   L65  0  0  0  0  0  0  0  0  0  0  0  0  0  0  0  0
+          0  0  0  0  0  0  0  0  0  0  0  0  0  0  0  0  0
+          0  0  0  0  0  0  0  0  0  0  0  0  0  0  0  0  0
+          0  0  0  0  0  0  0  0  0  0  0  0  0  0  0  0  0
+          0  0  0  0  0  0  0  0  0  0  0  0  0  0  0  0  0
++         0  0  0  0  0  0  0  0  0  0  0  0  0  0  0  0  0
++         0  0  0  0  0  0  0  0  0  0  0  0  0  0  0  0  0
++         0  0  0  0  0  0  0  0  0  0  0  0  0  0  0  0  0
++         0  0  0  0  0  0  0  0  0  0  0  0  0  0  0  0  0
++         0  0  0  0  0  0  0  0  0  0  0  0  0  0  0  0  0
%c L  cc GPS ccc cccc cccc cccc cccc ccccc ccccc ccccc ccccc
%c cc cc ccc ccc cccc cccc cccc cccc ccccc ccccc ccccc ccccc
%f  0.0000000  0.000000000  0.00000000000  0.000000000000000
%f  0.0000000  0.000000000  0.00000000000  0.000000000000000
%i    0    0    0    0      0      0      0      0         0
%i    0    0    0    0      0      0      0      0         0
/* CCCCCCCCCCCCCCCCCCCCCCCCCCCCCCCCCCCCCCCCCCCCCCCCCCCCCCCCCCCCCCCCCCCCCCCCCCCCC
/* C                             GFZ RSO-ORBIT                                 C
/* C DOI: https://doi.org/10.5880/GFZ_ORBIT/RSO/L65_G_v02                      C
/* C                                                                           C
/* C DORIS        RMS: not applicable                                          C
/* C GNSS-E Code  RMS: not applicable                                          C
/* C GNSS-E Phase RMS: not applicable                                          C
/* C GNSS-G Code  RMS:  49.571 [cm]   Obs.acc.:     13928 Obs.eli.:      1054  C
/* C GNSS-G Phase RMS:   4.383 [mm]   Obs.acc.:     13928 Obs.eli.:      1054  C
/* C SLR          RMS: not applicable                                          C
/* C                                                                           C
/* CCCCCCCCCCCCCCCCCCCCCCCCCCCCCCCCCCCCCCCCCCCCCCCCCCCCCCCCCCCCCCCCCCCCCCCCCCCCC
*  2023  2 11  4 22 30.00000000
PL65   5870.080972  -2227.132940   2758.432207   8558.483323
VL65  27691.003239 -13840.943758 -69813.369973 999999.999999
*  2023  2 11  4 23  0.00000000
PL65   5949.797856  -2267.591262   2547.492217   8558.953236
VL65  25449.195992 -13127.143798 -70800.215865 999999.999999
*  2023  2 11  4 23 30.00000000
PL65   6022.751119  -2305.871393   2333.709902   8559.422714
VL65  23182.361601 -12388.934700 -71708.074315 999999.999999
*  2023  2 11  4 24  0.00000000
PL65   6088.869647  -2341.901186   2117.323790   8559.892171
VL65  20893.149298 -11627.042983 -72535.916765 999999.999999
*  2023  2 11  4 24 30.00000000
PL65   6148.090313  -2375.610733   1898.575358   8560.361630
VL65  18584.235097 -10842.234501 -73282.805666 999999.999999
*  2023  2 11  4 25  0.00000000
PL65   6200.358054  -2406.932480   1677.708754   8560.831346
VL65  16258.318109 -10035.314059 -73947.899612 999999.999999
*  2023  2 11  4 25 30.00000000
PL65   6245.625933  -2435.801346   1454.970501   8561.301119
VL65  13918.113034  -9207.124039 -74530.456176 999999.999999
*  2023  2 11  4 26  0.00000000
PL65   6283.855168  -2462.154832   1230.609203   8561.770674
VL65  11566.343801  -8358.542601 -75029.830191 999999.999999
*  2023  2 11  4 26 30.00000000
PL65   6315.015163  -2485.933122   1004.875256   8562.240186
VL65   9205.741738  -7490.482328 -75445.471113 999999.999999
*  2023  2 11  4 27  0.00000000
PL65   6339.083524  -2507.079192    778.020568   8562.709769
VL65   6839.045442  -6603.889850 -75776.923742 999999.999999
*  2023  2 11  4 27 30.00000000
PL65   6356.046084  -2525.538907    550.298262   8563.179307
VL65   4468.998321  -5699.744892 -76023.831307 999999.999999
*  2023  2 11  4 28  0.00000000
PL65   6365.896906  -2541.261119    321.962385   8563.648676
VL65   2098.343347  -4779.058239 -76185.937481 999999.999999
*  2023  2 11  4 28 30.00000000
PL65   6368.638274  -2554.197754     93.267599   8564.118084
VL65   -270.182043  -3842.869927 -76263.085556 999999.999999
*  2023  2 11  4 29  0.00000000
PL65   6364.280673  -2564.303904   -135.531109   8564.587539
VL65  -2633.848640  -2892.248544 -76255.217585 999999.999999
*  2023  2 11  4 29 30.00000000
PL65   6352.842759  -2571.537908   -364.178729   8565.056961
VL65  -4989.938951  -1928.290626 -76162.375828 999999.999999
*  2023  2 11  4 30  0.00000000
PL65   6334.351317  -2575.861434   -592.420529   8565.526468
VL65  -7335.752595   -952.118890 -75984.702470 999999.999999
*  2023  2 11  4 30 30.00000000
PL65   6308.841201  -2577.239554   -820.002349   8565.995971
VL65  -9668.609425     35.119520 -75722.437532 999999.999999
*  2023  2 11  4 31  0.00000000
PL65   6276.355276  -2575.640819  -1046.670897   8566.465528
VL65 -11985.851846   1032.254473 -75375.918511 999999.999999
*  2023  2 11  4 31 30.00000000
PL65   6236.944337  -2571.037322  -1272.174038   8566.934976
VL65 -14284.848181   2038.094479 -74945.580054 999999.999999
*  2023  2 11  4 32  0.00000000
PL65   6190.667036  -2563.404758  -1496.261086   8567.404586
VL65 -16562.995836   3051.428500 -74431.953263 999999.999999
*  2023  2 11  4 32 30.00000000
PL65   6137.589782  -2552.722485  -1718.683093   8567.874062
VL65 -18817.724534   4071.027933 -73835.664816 999999.999999
*  2023  2 11  4 33  0.00000000
PL65   6077.786644  -2538.973569  -1939.193131   8568.343368
VL65 -21046.499403   5095.648143 -73157.435817 999999.999999
*  2023  2 11  4 33 30.00000000
PL65   6011.339238  -2522.144834  -2157.546579   8568.812727
VL65 -23246.824183   6124.029713 -72398.080996 999999.999999
*  2023  2 11  4 34  0.00000000
PL65   5938.336605  -2502.226901  -2373.501395   8569.282008
VL65 -25416.244945   7154.900279 -71558.507519 999999.999999
*  2023  2 11  4 34 30.00000000
PL65   5858.875082  -2479.214226  -2586.818400   8569.751365
VL65 -27552.353309   8186.976636 -70639.712787 999999.999999
*  2023  2 11  4 35  0.00000000
PL65   5773.058159  -2453.105128  -2797.261533   8570.220921
VL65 -29652.788658   9218.966143 -69642.782075 999999.999999
*  2023  2 11  4 35 30.00000000
PL65   5680.996336  -2423.901817  -3004.598125   8570.690318
VL65 -31715.239867  10249.567765 -68568.887030 999999.999999
*  2023  2 11  4 36  0.00000000
PL65   5582.806966  -2391.610417  -3208.599146   8571.159704
VL65 -33737.447565  11277.473771 -67419.284978 999999.999999
*  2023  2 11  4 36 30.00000000
PL65   5478.614100  -2356.240982  -3409.039467   8571.629102
VL65 -35717.207400  12301.372024 -66195.317614 999999.999999
*  2023  2 11  4 37  0.00000000
PL65   5368.548318  -2317.807507  -3605.698107   8572.098540
VL65 -37652.372894  13319.947970 -64898.408507 999999.999999
*  2023  2 11  4 37 30.00000000
PL65   5252.746546  -2276.327932  -3798.358477   8572.568001
VL65 -39540.857561  14331.886126 -63530.060913 999999.999999
*  2023  2 11  4 38  0.00000000
PL65   5131.351879  -2231.824143  -3986.808612   8573.037467
VL65 -41380.637089  15335.871575 -62091.855738 999999.999999
*  2023  2 11  4 38 30.00000000
PL65   5004.513391  -2184.321968  -4170.841408   8573.507088
VL65 -43169.751452  16330.591598 -60585.449531 999999.999999
*  2023  2 11  4 39  0.00000000
PL65   4872.385932  -2133.851168  -4350.254836   8573.976754
VL65 -44906.307290  17314.737557 -59012.572344 999999.999999
*  2023  2 11  4 39 30.00000000
PL65   4735.129932  -2080.445420  -4524.852169   8574.446426
VL65 -46588.480188  18287.006714 -57375.024862 999999.999999
*  2023  2 11  4 40  0.00000000
PL65   4592.911190  -2024.142300  -4694.442181   8574.916010
VL65 -48214.516256  19246.103759 -55674.675558 999999.999999
*  2023  2 11  4 40 30.00000000
PL65   4445.900656  -1964.983256  -4858.839352   8575.385603
VL65 -49782.733497  20190.742390 -53913.458132 999999.999999
*  2023  2 11  4 41  0.00000000
PL65   4294.274219  -1903.013580  -5017.864057   8575.854975
VL65 -51291.523161  21119.646986 -52093.369022 999999.999999
*  2023  2 11  4 41 30.00000000
PL65   4138.212481  -1838.282372  -5171.342749   8576.324229
VL65 -52739.351071  22031.554262 -50216.464699 999999.999999
*  2023  2 11  4 42  0.00000000
PL65   3977.900535  -1770.842502  -5319.108141   8576.793621
VL65 -54124.758393  22925.214814 -48284.858796 999999.999999
*  2023  2 11  4 42 30.00000000
PL65   3813.527737  -1700.750564  -5460.999367   8577.262904
VL65 -55446.361911  23799.394660 -46300.720058 999999.999999
*  2023  2 11  4 43  0.00000000
PL65   3645.287476  -1628.066832  -5596.862150   8577.732205
VL65 -56702.855726  24652.876846 -44266.271024 999999.999999
*  2023  2 11  4 43 30.00000000
PL65   3473.376941  -1552.855200  -5726.548954   8578.201459
VL65 -57893.014125  25484.462855 -42183.784221 999999.999999
*  2023  2 11  4 44  0.00000000
PL65   3297.996876  -1475.183130  -5849.919134   8578.670833
VL65 -59015.690535  26292.974190 -40055.577521 999999.999999
*  2023  2 11  4 44 30.00000000
PL65   3119.351351  -1395.121587  -5966.839061   8579.140137
VL65 -60069.815898  27077.254128 -37884.013921 999999.999999
*  2023  2 11  4 45  0.00000000
PL65   2937.647523  -1312.744971  -6077.182267   8579.609580
VL65 -61054.401538  27836.169114 -35671.501398 999999.999999
*  2023  2 11  4 45 30.00000000
PL65   2753.095390  -1228.131047  -6180.829568   8580.079263
VL65 -61968.542200  28568.610616 -33420.489014 999999.999999
*  2023  2 11  4 46  0.00000000
PL65   2565.907539  -1141.360864  -6277.669185   8580.549764
VL65 -62811.416570  29273.496737 -31133.461443 999999.999999
*  2023  2 11  4 46 30.00000000
PL65   2376.298898  -1052.518678  -6367.596837   8581.020094
VL65 -63582.285903  29949.772548 -28812.934960 999999.999999
*  2023  2 11  4 47  0.00000000
PL65   2184.486489   -961.691867  -6450.515841   8581.490078
VL65 -64280.493186  30596.410735 -26461.455850 999999.999999
*  2023  2 11  4 47 30.00000000
PL65   1990.689179   -868.970850  -6526.337193   8581.960026
VL65 -64905.463575  31212.412617 -24081.598266 999999.999999
EOF
